[{"OBJECT_NAME":"STARLINK-31516","OBJECT_ID":"2024-046W","EPOCH":"2026-03-09T13:29:10.523040","MEAN_MOTION":15.3018646,"ECCENTRICITY":0.0001351,"INCLINATION":53.1608,"RA_OF_ASC_NODE":155.6669,"ARG_OF_PERICENTER":127.9911,"MEAN_ANOMALY":232.1212,"EPHEMERIS_TYPE":0,"CLASSIFICATION_TYPE":"U","NORAD_CAT_ID":59221,"ELEMENT_SET_NO":999,"REV_AT_EPOCH":11302,"BSTAR":-4.2693e-5,"MEAN_MOTION_DOT":-1.623e-5,"MEAN_MOTION_DDOT":0},{"OBJECT_NAME":"COSMOS 1328","OBJECT_ID":"1981-117A","EPOCH":"2026-03-09T17:51:53.113536","MEAN_MOTION":15.33902077,"ECCENTRICITY":0.00108717,"INCLINATION":82.4939,"RA_OF_ASC_NODE":350.453,"ARG_OF_PERICENTER":167.9725,"MEAN_ANOMALY":192.1779,"EPHEMERIS_TYPE":0,"CLASSIFICATION_TYPE":"U","NORAD_CAT_ID":12987,"ELEMENT_SET_NO":999,"REV_AT_EPOCH":41406,"BSTAR":0.00040501644,"MEAN_MOTION_DOT":0.00013342,"MEAN_MOTION_DDOT":0}]
